NORAD_CAT_ID,OBJECT_NAME,OBJECT_TYPE,EPOCH,MEAN_MOTION,ECCENTRICITY,INCLINATION,RA_OF_ASC_NODE,ARG_OF_PERICENTER,MEAN_ANOMALY,BSTAR,MEAN_MOTION_DOT,MEAN_MOTION_DDOT,TLE_LINE0,TLE_LINE1,TLE_LINE2,SEMIMAJOR_AXIS,PERIOD,APOGEE,PERIGEE,DECAYED
52276.0,STARLINK-3778,PAYLOAD,2022-09-06 22:00:00,15.08803431,0.0001829,53.2184,94.2479,60.805,317.915,0.00099195,0.00015518,0.0,0 STARLINK-3778,1 52276U 22041R   22249.91667824  .00015518  00000-0  99195-3 0  9999,2 52276  53.2184  94.2479 0001829  60.8050 317.9150 15.08803431 22385,6917.9919999999975,95.44,541.122,538.592,0.0
52276.0,STARLINK-3778,PAYLOAD,2022-09-07 14:00:01,15.08827011,0.0001715,53.2187,91.2536,68.0535,333.7985,0.001126,0.00017671,0.0,0 STARLINK-3778,1 52276U 22041R   22250.58334491  .00017671  00000-0  11260-2 0  9993,2 52276  53.2187  91.2536 0001715  68.0535 333.7985 15.08827011  1302,6917.92,95.438,540.972,538.599,0.0
52276.0,STARLINK-3778,PAYLOAD,2022-09-07 22:00:00,15.08821895,0.0001843,53.2186,89.759,61.3733,352.0667,0.0012545,0.00019724,0.0,0 STARLINK-3778,1 52276U 22041R   22250.91667824  .00019724  00000-0  12545-2 0  9997,2 52276  53.2186  89.7590 0001843  61.3733 352.0667 15.08821895  1306,6917.936,95.439,541.076,538.526,0.0
52276.0,STARLINK-3778,PAYLOAD,2022-09-08 06:00:00,15.08852593,0.0001733999999999,53.2185,88.2614,64.0298,0.9951,-0.0012874,-0.00020726,0.0,0 STARLINK-3778,1 52276U 22041R   22251.25001157 -.00020726  00000-0 -12874-2 0  9997,2 52276  53.2185  88.2614 0001734  64.0298   0.9951 15.08852593 22599,6917.842,95.437,540.906,538.507,0.0
52276.0,STARLINK-3778,PAYLOAD,2022-09-08 14:00:01,15.08850988,0.0001714,53.2187,86.7646,69.1928,7.4278,0.00057723,8.913e-05,0.0,0 STARLINK-3778,1 52276U 22041R   22251.58334491  .00008913  00000-0  57723-3 0  9998,2 52276  53.2187  86.7646 0001714  69.1928   7.4278 15.08850988  1309,6917.847,95.437,540.898,538.526,0.0
52276.0,STARLINK-3778,PAYLOAD,2022-09-08 22:00:00,15.08842675,0.0001796,53.2185,85.2698,61.6335,26.6041,0.0014531,0.00022915,0.0,0 STARLINK-3778,1 52276U 22041R   22251.91667824  .00022915  00000-0  14531-2 0  9991,2 52276  53.2185  85.2698 0001796  61.6335  26.6041 15.08842675 22697,6917.871999999999,95.437,540.98,538.495,0.0
52276.0,STARLINK-3778,PAYLOAD,2022-09-09 14:00:01,15.08848735,0.0001575,53.2184,82.2752,68.7701,42.6803,0.00017255,2.46e-05,0.0,0 STARLINK-3778,1 52276U 22041R   22252.58334491  .00002460  00000-0  17255-3 0  9996,2 52276  53.2184  82.2752 0001575  68.7701  42.6803 15.08848735  1306,6917.854,95.437,540.808,538.629,0.0
52276.0,STARLINK-3778,PAYLOAD,2022-09-09 22:00:00,15.08832908,0.000165,53.2181,80.7805,60.4062,62.6548,0.0019119,0.00030265,0.0,0 STARLINK-3778,1 52276U 22041R   22252.91667824  .00030265  00000-0  19119-2 0  9996,2 52276  53.2181  80.7805 0001650  60.4062  62.6548 15.08832908  1301,6917.901999999999,95.438,540.909,538.626,0.0
52276.0,STARLINK-3778,PAYLOAD,2022-09-10 14:00:01,15.08840012,0.0001465,53.218,77.786,68.1264,78.1192,-0.00037207,-6.205e-05,0.0,0 STARLINK-3778,1 52276U 22041R   22253.58334491 -.00006205  00000-0 -37207-3 0  9999,2 52276  53.2180  77.7860 0001465  68.1264  78.1192 15.08840012 22945,6917.88,95.438,540.759,538.732,0.0
52276.0,STARLINK-3778,PAYLOAD,2022-09-10 22:00:00,15.08814526,0.0001563,53.2178,76.2912,59.0275,98.8153,0.0026302,0.00041791,0.0,0 STARLINK-3778,1 52276U 22041R   22253.91667824  .00041791  00000-0  26302-2 0  9995,2 52276  53.2178  76.2912 0001563  59.0275  98.8153 15.08814526  1308,6917.958000000001,95.439,540.905,538.742,0.0
52276.0,STARLINK-3778,PAYLOAD,2022-09-11 14:00:01,15.08865582,0.0001479,53.2178,73.2968,67.3992,113.6305,-0.00042401,-7.035e-05,0.0,0 STARLINK-3778,1 52276U 22041R   22254.58334491 -.00007035  00000-0 -42401-3 0  9994,2 52276  53.2178  73.2968 0001479  67.3992 113.6305 15.08865582  1303,6917.802,95.436,540.69,538.644,0.0
52276.0,STARLINK-3778,PAYLOAD,2022-09-11 22:00:00,15.08846058,0.0001534,53.2177,71.8019,57.0319,135.6258,0.0002339,3.437e-05,0.0,0 STARLINK-3778,1 52276U 22041R   22254.91667824  .00003437  00000-0  23390-3 0  9996,2 52276  53.2177  71.8019 0001534  57.0319 135.6258 15.08846058  1302,6917.861999999999,95.437,540.788,538.6659999999998,0.0
52276.0,STARLINK-3778,PAYLOAD,2022-09-12 06:00:00,15.0884469,0.0001424,53.2178,70.3037,62.2854,141.9698,-0.0022327,-0.0003565,0.0,0 STARLINK-3778,1 52276U 22041R   22255.25001157 -.00035650  00000-0 -22327-2 0  9997,2 52276  53.2178  70.3037 0001424  62.2854 141.9698 15.08844690 23196,6917.866,95.437,540.716,538.746,0.0
52276.0,STARLINK-3778,PAYLOAD,2022-09-12 14:00:01,15.08834419,0.0001545,53.2179,68.8076,65.7341,150.1029,-0.00055223,-9.065e-05,0.0,0 STARLINK-3778,1 52276U 22041R   22255.58334491 -.00009065  00000-0 -55223-3 0  9996,2 52276  53.2179  68.8076 0001545  65.7341 150.1029 15.08834419  1302,6917.897,95.438,540.831,538.694,0.0
52276.0,STARLINK-3778,PAYLOAD,2022-09-12 22:00:00,15.08805532,0.0001657,53.2181,67.3127,56.5583,170.8667,0.003545,0.0005652999999999,0.0,0 STARLINK-3778,1 52276U 22041R   22255.91667824  .00056530  00000-0  35450-2 0  9998,2 52276  53.2181  67.3127 0001657  56.5583 170.8667 15.08805532  1307,6917.986,95.44,540.997,538.7040000000002,0.0
52276.0,STARLINK-3778,PAYLOAD,2022-09-13 14:00:01,15.08853908,0.0001685,53.2185,64.3186,64.2303,186.3749,-0.0019872,-0.00031787,0.0,0 STARLINK-3778,1 52276U 22041R   22256.58334491 -.00031787  00000-0 -19872-2 0  9992,2 52276  53.2185  64.3186 0001685  64.2303 186.3749 15.08853908  1303,6917.8380000000025,95.437,540.869,538.5369999999998,0.0
52276.0,STARLINK-3778,PAYLOAD,2022-09-13 16:00:00,15.08842029,0.0001735,53.2185,63.9445,61.7219,281.7879,-0.0010747,-0.00017352,0.0,0 STARLINK-3778,1 52276U 22041R   22256.66667824 -.00017352  00000-0 -10747-2 0  9994,2 52276  53.2185  63.9445 0001735  61.7219 281.7879 15.08842029 23401,6917.874,95.437,540.939,538.539,0.0
52276.0,STARLINK-3778,PAYLOAD,2022-09-13 22:00:00,15.08811049,0.0001799,53.2187,62.8237,57.4984,204.6987,0.0029905,0.0004758999999999,0.0,0 STARLINK-3778,1 52276U 22041R   22256.91667824  .00047590  00000-0  29905-2 0  9993,2 52276  53.2187  62.8237 0001799  57.4984 204.6987 15.08811049  1308,6917.969,95.439,541.078,538.589,0.0
52276.0,STARLINK-3778,PAYLOAD,2022-09-14 14:00:01,15.0883586,0.0001665,53.2193,59.8299,61.83,223.5204,-0.00090804,-0.00014709,0.0,0 STARLINK-3778,1 52276U 22041R   22257.58334491 -.00014709  00000-0 -90804-3 0  9993,2 52276  53.2193  59.8299 0001665  61.8300 223.5204 15.08835860  1301,6917.893,95.438,540.91,538.606,0.0
52276.0,STARLINK-3778,PAYLOAD,2022-09-14 22:00:00,15.08809898,0.000176,53.2193,58.3349,54.7034,242.2338,0.0032213,0.0005131,0.0,0 STARLINK-3778,1 52276U 22041R   22257.91667824  .00051310  00000-0  32213-2 0  9995,2 52276  53.2193  58.3349 0001760  54.7034 242.2338 15.08809898 23595,6917.972,95.439,541.055,538.62,0.0
52276.0,STARLINK-3778,PAYLOAD,2022-09-15 14:00:01,15.08877391,0.0001649,53.2199,55.3413,60.15600000000001,259.9621,-0.0025038,-0.00039956,0.0,0 STARLINK-3778,1 52276U 22041R   22258.58334491 -.00039956  00000-0 -25038-2 0  9991,2 52276  53.2199  55.3413 0001649  60.1560 259.9621 15.08877391  1309,6917.766,95.435,540.7719999999998,538.49,0.0
52276.0,STARLINK-3778,PAYLOAD,2022-09-15 17:21:22,15.08846017,0.000162,53.2209,54.7135,60.8957,299.2197,8.264399999999999e-05,1.028e-05,0.0,0 STARLINK-3778,1 52276U 22041R   22258.72317480  .00001028  00000-0  82644-4 0  9991,2 52276  53.2209  54.7135 0001620  60.8957 299.2197 15.08846017 23716,6917.861999999999,95.437,540.8480000000002,538.606,0.0
52276.0,STARLINK-3778,PAYLOAD,2022-09-16 02:53:41,15.0883727,0.0001958,53.2222,52.9266,64.9568,295.1627,8.351700000000001e-05,1.041e-05,0.0,0 STARLINK-3778,1 52276U 22041R   22259.12062099  .00001041  00000-0  83517-4 0  9994,2 52276  53.2222  52.9266 0001958  64.9568 295.1627 15.08837270 23773,6917.889,95.438,541.1080000000002,538.399,0.0
52276.0,STARLINK-3778,PAYLOAD,2022-09-16 12:26:00,15.08829456,0.0001320999999999,53.2217,51.1465,52.7319,307.3794,7.1821e-05,8.55e-06,0.0,0 STARLINK-3778,1 52276U 22041R   22259.51806535  .00000855  00000-0  71821-4 0  9995,2 52276  53.2217  51.1465 0001321  52.7319 307.3794 15.08829456 22612,6917.913000000001,95.438,540.691,538.864,0.0
52276.0,STARLINK-3778,PAYLOAD,2022-09-16 18:47:33,15.08825431,0.0001581,53.2204,49.9563,57.8568,302.2577,4.6569e-05,4.53e-06,0.0,0 STARLINK-3778,1 52276U 22041R   22259.78303128  .00000453  00000-0  46569-4 0  9999,2 52276  53.2204  49.9563 0001581  57.8568 302.2577 15.08825431 23873,6917.925,95.438,540.884,538.696,0.0
52276.0,STARLINK-3778,PAYLOAD,2022-09-17 12:16:47,15.08842416,0.000159,53.2204,46.685,57.8477,302.267,1.4892e-05,-5.1e-07,0.0,0 STARLINK-3778,1 52276U 22041R   22260.51166507 -.00000051  00000-0  14892-4 0  9999,2 52276  53.2204  46.6850 0001590  57.8477 302.2670 15.08842416 23983,6917.873000000001,95.437,540.8380000000002,538.638,0.0
52276.0,STARLINK-3778,PAYLOAD,2022-09-17 18:38:20,15.08846024,0.0001537,53.2209,45.4962,59.6206,300.4938,4.9942e-05,5.07e-06,0.0,0 STARLINK-3778,1 52276U 22041R   22260.77662126  .00000507  00000-0  49942-4 0  9994,2 52276  53.2209  45.4962 0001537  59.6206 300.4938 15.08846024 22806,6917.861999999999,95.437,540.79,538.664,0.0
52276.0,STARLINK-3778,PAYLOAD,2022-09-18 12:07:34,15.08839547,0.0001478,53.2206,42.2249,53.50100000000001,306.6118,7.8119e-05,9.56e-06,0.0,0 STARLINK-3778,1 52276U 22041R   22261.50526392  .00000956  00000-0  78119-4 0  9996,2 52276  53.2206  42.2249 0001478  53.5010 306.6118 15.08839547 22918,6917.882,95.438,540.769,538.724,0.0
52276.0,STARLINK-3778,PAYLOAD,2022-09-18 16:53:44,15.08836622,0.0001523,53.2208,41.3334,55.2917,304.8218,0.0001747,2.493e-05,0.0,0 STARLINK-3778,1 52276U 22041R   22261.70398467  .00002493  00000-0  17470-3 0  9998,2 52276  53.2208  41.3334 0001523  55.2917 304.8218 15.08836622 24162,6917.891,95.438,540.809,538.702,0.0
